ONEWEB-0108             
1 48076U 21025AL  23243.22001379  .00000263  00000+0  68486-3 0  9998
2 48076  87.9088 163.3231 0001726  78.7448 281.3875 13.13468382119622
ONEWEB-0169             
1 48077U 21025AM  23243.93524418  .00000329  00000+0  86644-3 0  9990
2 48077  87.9069 163.1860 0001735  79.0462 281.0862 13.13467406119616
ONEWEB-0176             
1 48210U 21031A   23242.98200284  .00000104  00000+0  24491-3 0  9995
2 48210  87.9022 132.9837 0001855  77.1402 282.9935 13.14500115114159
ONEWEB-0184             
1 48211U 21031B   23243.10886569 -.00000172  00000+0 -49794-3 0  9997
2 48211  87.9025 132.9376 0002933  89.6558 270.4908 13.14502919114144
ONEWEB-0179             
1 48212U 21031C   23242.92491191  .00000222  00000+0  56560-3 0  9993
2 48212  87.9026 132.9693 0001964  68.7412 291.3927 13.14504339114161
ONEWEB-0180             
1 48213U 21031D   23242.95874196 -.00000044  00000+0 -15240-3 0  9991
2 48213  87.9028 132.9654 0001971  68.7109 291.4231 13.14502855114050
ONEWEB-0218             
1 48214U 21031E   23242.97989375 -.00000094  00000+0 -28824-3 0  9997
2 48214  87.9025 132.9629 0003145  80.3498 279.7987 13.14501130114216
ONEWEB-0209             
1 48215U 21031F   23244.11107022  .00000553  00000+0  14563-2 0  9999
2 48215  87.9049 132.7790 0002090  78.9863 281.1502 13.14502358114366
